TYVAK-0172              
1 46267U 20059C   26068.62538449  .00278441  00000+0  21652-2 0  9997
2 46267  97.7214 311.0561 0003543  67.1132 293.0503 15.70916107303116
STARLINK-11469 [DTC]    
1 62227U 24231K   26068.57208620  .00218196  00000+0  17530-2 0  9997
2 62227  53.1572 101.7986 0000819  88.3909 271.7202 15.69791061 73399
