[{"OBJECT_NAME":"TYVAK-0172","OBJECT_ID":"2020-059C","EPOCH":"2026-03-09T15:00:33.219936","MEAN_MOTION":15.70916107,"ECCENTRICITY":0.0003543,"INCLINATION":97.7214,"RA_OF_ASC_NODE":311.0561,"ARG_OF_PERICENTER":67.1132,"MEAN_ANOMALY":293.0503,"EPHEMERIS_TYPE":0,"CLASSIFICATION_TYPE":"U","NORAD_CAT_ID":46267,"ELEMENT_SET_NO":999,"REV_AT_EPOCH":30311,"BSTAR":0.0021652,"MEAN_MOTION_DOT":0.00278441,"MEAN_MOTION_DDOT":0},{"OBJECT_NAME":"STARLINK-11469 [DTC]","OBJECT_ID":"2024-231K","EPOCH":"2026-03-09T13:43:48.247680","MEAN_MOTION":15.69791061,"ECCENTRICITY":8.19e-5,"INCLINATION":53.1572,"RA_OF_ASC_NODE":101.7986,"ARG_OF_PERICENTER":88.3909,"MEAN_ANOMALY":271.7202,"EPHEMERIS_TYPE":0,"CLASSIFICATION_TYPE":"U","NORAD_CAT_ID":62227,"ELEMENT_SET_NO":999,"REV_AT_EPOCH":7339,"BSTAR":0.001753,"MEAN_MOTION_DOT":0.00218196,"MEAN_MOTION_DDOT":0}]
